{
  "type": "FeatureCollection",
  "features": [
    {
      "type": "Feature",
      "properties": {
        "name": "Kaveri",
        "slug": "kaveri",
        "color": "#38bdf8",
        "length_km": 805,
        "origin": "Talakaveri, Kodagu",
        "mouth": "Bay of Bengal (via Tamil Nadu)",
        "flow": ["Talakaveri (source)", "Kushalnagar", "KRS Dam", "Srirangapatna", "Shivanasamudra Falls", "into Tamil Nadu →"],
        "summary": "The sacred Kaveri rises at Talakaveri in the Brahmagiri hills of Kodagu, feeds the KRS dam, drops at Shivanasamudra falls, and flows on into Tamil Nadu."
      },
      "geometry": {
        "type": "LineString",
        "coordinates": [
          [75.49, 12.39], [75.73, 12.36], [76.1, 12.43], [76.57, 12.42],
          [76.69, 12.41], [76.9, 12.3], [77.17, 12.3], [77.43, 12.24], [77.74, 12.18]
        ]
      }
    },
    {
      "type": "Feature",
      "properties": {
        "name": "Tungabhadra",
        "slug": "tungabhadra",
        "color": "#22d3ee",
        "length_km": 531,
        "origin": "Koodli (Tunga + Bhadra confluence)",
        "mouth": "Joins the Krishna in Andhra Pradesh",
        "flow": ["Koodli (Tunga + Bhadra meet)", "Harihar", "Tungabhadra Dam, Hosapete", "Hampi", "into Andhra Pradesh →"],
        "summary": "Formed where the Tunga and Bhadra meet at Koodli, the Tungabhadra feeds the Tungabhadra Dam at Hosapete and flows past the ruins of Hampi."
      },
      "geometry": {
        "type": "LineString",
        "coordinates": [
          [75.65, 14.02], [75.95, 14.3], [76.1, 14.7], [76.2, 15.0],
          [76.33, 15.27], [76.47, 15.34], [76.7, 15.6], [77.05, 15.95]
        ]
      }
    },
    {
      "type": "Feature",
      "properties": {
        "name": "Krishna",
        "slug": "krishna",
        "color": "#818cf8",
        "length_km": 1400,
        "origin": "Mahabaleshwar, Maharashtra",
        "mouth": "Bay of Bengal",
        "flow": ["enters from Maharashtra", "Almatti Dam", "Narayanpur Dam", "into Telangana →"],
        "summary": "The Krishna enters northern Karnataka from Maharashtra, fills the vast Almatti and Narayanpur reservoirs, then flows east into Telangana."
      },
      "geometry": {
        "type": "LineString",
        "coordinates": [
          [74.55, 16.92], [75.3, 16.55], [75.89, 16.33], [76.4, 16.2],
          [77.0, 16.25], [77.4, 16.3]
        ]
      }
    },
    {
      "type": "Feature",
      "properties": {
        "name": "Sharavathi",
        "slug": "sharavathi",
        "color": "#2dd4bf",
        "length_km": 128,
        "origin": "Ambutirtha, Shivamogga",
        "mouth": "Arabian Sea at Honnavar",
        "flow": ["Ambutirtha (source)", "Jog Falls", "Honnavar", "Arabian Sea →"],
        "summary": "A west-flowing river famous for the spectacular Jog Falls, one of India's tallest waterfalls, before reaching the Arabian Sea at Honnavar."
      },
      "geometry": {
        "type": "LineString",
        "coordinates": [
          [75.04, 13.74], [74.95, 14.0], [74.81, 14.23], [74.6, 14.27], [74.45, 14.28]
        ]
      }
    },
    {
      "type": "Feature",
      "properties": {
        "name": "Kali",
        "slug": "kali-river",
        "color": "#34d399",
        "length_km": 184,
        "origin": "Western Ghats near Diggi",
        "mouth": "Arabian Sea at Karwar",
        "flow": ["Western Ghats (source)", "Dandeli", "Kadra Dam", "Karwar", "Arabian Sea →"],
        "summary": "The Kali Nadi powers several dams (Supa, Kadra) through the forests of Uttara Kannada and meets the Arabian Sea at Karwar."
      },
      "geometry": {
        "type": "LineString",
        "coordinates": [
          [74.78, 15.28], [74.62, 15.24], [74.45, 15.08], [74.28, 14.95], [74.13, 14.83]
        ]
      }
    },
    {
      "type": "Feature",
      "properties": {
        "name": "Netravati",
        "slug": "netravati",
        "color": "#60a5fa",
        "length_km": 103,
        "origin": "Bangrabalige valley, Western Ghats",
        "mouth": "Arabian Sea at Mangaluru",
        "flow": ["Western Ghats (source)", "Dharmasthala", "Uppinangady", "Bantwal", "Mangaluru", "Arabian Sea →"],
        "summary": "The Netravati flows past Dharmasthala and is the main source of drinking water for Mangaluru, joining the Arabian Sea at the city."
      },
      "geometry": {
        "type": "LineString",
        "coordinates": [
          [75.55, 13.05], [75.38, 12.95], [75.25, 12.84], [75.04, 12.89], [74.84, 12.85]
        ]
      }
    },
    {
      "type": "Feature",
      "properties": {
        "name": "Kabini",
        "slug": "kabini",
        "color": "#a78bfa",
        "length_km": 230,
        "origin": "Wayanad, Kerala",
        "mouth": "Joins the Kaveri at T. Narasipura",
        "flow": ["Wayanad, Kerala (source)", "Kabini Reservoir", "H.D. Kote", "joins Kaveri at T. Narasipura →"],
        "summary": "A major tributary of the Kaveri, the Kabini's backwaters at Nagarhole are one of India's best wildlife-viewing spots."
      },
      "geometry": {
        "type": "LineString",
        "coordinates": [
          [76.05, 11.88], [76.27, 11.97], [76.35, 12.1], [76.9, 12.21]
        ]
      }
    },
    {
      "type": "Feature",
      "properties": {
        "name": "Bhadra",
        "slug": "bhadra",
        "color": "#4ade80",
        "length_km": 178,
        "origin": "Gangamoola, Kudremukh",
        "mouth": "Joins the Tunga at Koodli",
        "flow": ["Gangamoola, Kudremukh (source)", "Bhadra Dam", "joins Tunga at Koodli →"],
        "summary": "Rising in the Kudremukh hills, the Bhadra feeds the Bhadra Wildlife Sanctuary and reservoir before merging with the Tunga to form the Tungabhadra."
      },
      "geometry": {
        "type": "LineString",
        "coordinates": [
          [75.23, 13.2], [75.62, 13.7], [75.65, 13.92], [75.65, 14.02]
        ]
      }
    }
  ]
}
